QIANFAN-153             
1 69112U 26108J   26155.93468109  .00000346  00000+0  15713-3 0  9997
2 69112  89.0119  23.5744 0016094 153.5778 206.6236 14.19640688  2611
QIANFAN-154             
1 69113U 26108K   26155.92873143  .00000349  00000+0  15691-3 0  9993
2 69113  89.0124  23.5742 0015771 151.4796 208.7260 14.20188769  2613
QIANFAN-155             
1 69114U 26108L   26155.86020435  .00000367  00000+0  16716-3 0  9994
2 69114  89.0123  23.5823 0016471 152.0553 208.1525 14.19534090  2606
QIANFAN-156             
1 69115U 26108M   26155.92510324  .00000352  00000+0  15588-3 0  9993
2 69115  89.0127  23.5741 0016109 153.0871 207.1159 14.20956577  2615
QIANFAN-157             
1 69116U 26108N   26155.90448395  .00000403  00000+0  16635-3 0  9991
2 69116  89.0123  23.5705 0016391 158.0654 202.1244 14.24907073  2610
QIANFAN-158             
1 69117U 26108P   26155.91999061  .00000367  00000+0  15987-3 0  9992
2 69117  89.0123  23.5727 0016041 154.4523 205.7464 14.21846005  2619
QIANFAN-159             
1 69118U 26108Q   26155.84626169  .00000142  00000+0  57245-4 0  9996
2 69118  89.0121  23.5799 0015730 154.5571 205.6398 14.22291685  2608
QIANFAN-160             
1 69119U 26108R   26155.91396296  .00000103  00000+0  39652-4 0  9999
2 69119  89.0123  23.5716 0015469 154.0359 206.1612 14.22716242  2615
QIANFAN-161             
1 69120U 26108S   26155.84082312  .00000380  00000+0  16143-3 0  9990
2 69120  89.0123  23.5793 0015453 155.1040 205.0900 14.23187616  2609
QIANFAN-162             
1 69121U 26108T   26155.90963357  .00000387  00000+0  16342-3 0  9993
2 69121  89.0123  23.5712 0015305 156.0960 204.0946 14.23623087  2615
SMILE                   
1 69123U 26109A   26144.65318427 -.00001976  00000+0 -42379-3 0  9994
2 69123  70.0007 229.2745 0009123 259.5159 100.4951 14.57062785   802
STARLINK-37726          
1 69124U 26110A   26155.91672454 -.02398087  00000+0 -38232-1 0  9996
2 69124  97.2853 352.0112 0001844  82.3443  13.2360 15.56847929  3681
STARLINK-37722          
1 69125U 26110B   26155.91672454 -.01837421  00000+0 -16363-1 0  9997
2 69125  97.2843 352.0983 0001536 103.1816 195.7413 15.71686456  3735
STARLINK-37715          
1 69126U 26110C   26155.86023077  .00167963  00000+0  85815-3 0  9997
2 69126  97.2841 352.0491 0001419  91.8393 268.3038 15.80884521  3699
STARLINK-37706          
1 69127U 26110D   26155.85947874  .00148828  00000+0  76283-3 0  9995
2 69127  97.2842 352.0504 0001494 109.5445 250.5985 15.80865094  3692
STARLINK-37723          
1 69128U 26110E   26155.85872820  .00144371  00000+0  74186-3 0  9993
2 69128  97.2846 352.0513 0001325  73.3492 286.7921 15.80821530  3698
STARLINK-37720          
1 69129U 26110F   26155.91672454 -.02500137  00000+0 -39716-1 0  9990
2 69129  97.2847 352.0318 0002065  85.1154  59.0334 15.57106577  3680
STARLINK-37533          
1 69130U 26110G   26155.85647424  .00134649  00000+0  69133-3 0  9999
2 69130  97.2845 352.0547 0000926  67.3707 292.7659 15.80866142  3698
STARLINK-37530          
1 69131U 26110H   26155.85572279  .00196646  00000+0  10012-2 0  9991
2 69131  97.2845 352.0562 0001179  65.8642 294.2750 15.80885687  3692
STARLINK-37660          
1 69132U 26110J   26155.91672454 -.01837721  00000+0 -15218-1 0  9996
2 69132  97.2843 352.1103 0001417 102.8993 225.1134 15.73389241  3684
STARLINK-37633          
1 69133U 26110K   26155.91672454 -.01839881  00000+0 -14649-1 0  9993
2 69133  97.2845 352.1144 0001408  98.4185 239.2500 15.74300185  3689
STARLINK-37361          
1 69134U 26110L   26155.85346789  .00187245  00000+0  95438-3 0  9990
2 69134  97.2845 352.0592 0001568  85.7823 274.3624 15.80886354  3693
STARLINK-37372          
1 69135U 26110M   26155.91672454 -.01525807  00000+0 -10469-1 0  9991
2 69135  97.2845 352.1244 0001482  70.3525 289.1721 15.77590815  3684
STARLINK-37531          
1 69136U 26110N   26155.85198529 -.00157240  00000+0 -84087-3 0  9991
2 69136  97.2845 352.0611 0001523  51.9727 308.1679 15.80662195  3697
STARLINK-37662          
1 69137U 26110P   26155.91672454 -.01945367  00000+0 -14472-1 0  9998
2 69137  97.2849 352.1256 0001438  81.4984 280.0761 15.76042099  3685
STARLINK-37658          
1 69138U 26110Q   26155.91672454 -.02465991  00000+0 -24050-1 0  9993
2 69138  97.2850 352.1063 0001647 107.5895 209.8750 15.69414566  3688
STARLINK-37659          
1 69139U 26110R   26155.91672454 -.02431026  00000+0 -25724-1 0  9995
2 69139  97.2848 352.0998 0001570 104.5781 196.9230 15.67386426  3688
STARLINK-37653          
1 69140U 26110S   26155.91672454 -.02481528  00000+0 -27660-1 0  9990
2 69140  97.2847 352.1011 0001685 111.1004 192.9576 15.66177337  3682
STARLINK-37654          
1 69141U 26110T   26155.91672454 -.02332172  00000+0 -17042-1 0  9994
2 69141  97.2846 352.1340 0000891 115.7664 266.9502 15.76520240  3684
