OBJECT_NAME,OBJECT_ID,EPOCH,MEAN_MOTION,ECCENTRICITY,INCLINATION,RA_OF_ASC_NODE,ARG_OF_PERICENTER,MEAN_ANOMALY,EPHEMERIS_TYPE,CLASSIFICATION_TYPE,NORAD_CAT_ID,ELEMENT_SET_NO,REV_AT_EPOCH,BSTAR,MEAN_MOTION_DOT,MEAN_MOTION_DDOT
QIANFAN-153,2026-108J,2026-06-04T22:25:56.446176,14.19640688,.00160946,89.0119,23.5744,153.5778,206.6236,0,U,69112,999,261,.15713125E-3,.346E-5,0
QIANFAN-154,2026-108K,2026-06-04T22:17:22.395552,14.20188769,.00157717,89.0124,23.5742,151.4796,208.7260,0,U,69113,999,261,.15690792E-3,.349E-5,0
QIANFAN-155,2026-108L,2026-06-04T20:38:41.655840,14.19534090,.00164711,89.0123,23.5823,152.0553,208.1525,0,U,69114,999,260,.16716468E-3,.367E-5,0
QIANFAN-156,2026-108M,2026-06-04T22:12:08.919936,14.20956577,.00161097,89.0127,23.5741,153.0871,207.1159,0,U,69115,999,261,.15588213E-3,.352E-5,0
QIANFAN-157,2026-108N,2026-06-04T21:42:27.413280,14.24907073,.00163918,89.0123,23.5705,158.0654,202.1244,0,U,69116,999,261,.1663501E-3,.403E-5,0
QIANFAN-158,2026-108P,2026-06-04T22:04:47.188704,14.21846005,.00160412,89.0123,23.5727,154.4523,205.7464,0,U,69117,999,261,.15987064E-3,.367E-5,0
QIANFAN-159,2026-108Q,2026-06-04T20:18:37.010016,14.22291685,.00157306,89.0121,23.5799,154.5571,205.6398,0,U,69118,999,260,.5724467E-4,.142E-5,0
QIANFAN-160,2026-108R,2026-06-04T21:56:06.399744,14.22716242,.00154694,89.0123,23.5716,154.0359,206.1612,0,U,69119,999,261,.39652297E-4,.103E-5,0
QIANFAN-161,2026-108S,2026-06-04T20:10:47.117568,14.23187616,.0015453,89.0123,23.5793,155.1040,205.0900,0,U,69120,999,260,.16142663E-3,.38E-5,0
QIANFAN-162,2026-108T,2026-06-04T21:49:52.340448,14.23623087,.00153057,89.0123,23.5712,156.0960,204.0946,0,U,69121,999,261,.16342191E-3,.387E-5,0
SMILE,2026-109A,2026-05-24T15:40:35.120928,14.57062785,.00091232,70.0007,229.2745,259.5159,100.4951,0,U,69123,999,80,-.42378883E-3,-.1976E-4,0
STARLINK-37726,2026-110A,2026-06-04T22:00:05.000256,15.56847929,.00018448,97.2853,352.0112,82.3443,13.2360,0,U,69124,999,368,-.38231609E-1,-.2398087E-1,0
STARLINK-37722,2026-110B,2026-06-04T22:00:05.000256,15.71686456,.00015365,97.2843,352.0983,103.1816,195.7413,0,U,69125,999,373,-.16362894E-1,-.1837421E-1,0
STARLINK-37715,2026-110C,2026-06-04T20:38:43.938528,15.80884521,.00014196,97.2841,352.0491,91.8393,268.3038,0,U,69126,999,369,.85815479E-3,.167963E-2,0
STARLINK-37706,2026-110D,2026-06-04T20:37:38.963136,15.80865094,.00014948,97.2842,352.0504,109.5445,250.5985,0,U,69127,999,369,.76282549E-3,.148828E-2,0
STARLINK-37723,2026-110E,2026-06-04T20:36:34.116480,15.80821530,.00013259,97.2846,352.0513,73.3492,286.7921,0,U,69128,999,369,.7418631E-3,.144371E-2,0
STARLINK-37720,2026-110F,2026-06-04T22:00:05.000256,15.57106577,.00020657,97.2847,352.0318,85.1154,59.0334,0,U,69129,999,368,-.39716331E-1,-.2500137E-1,0
STARLINK-37533,2026-110G,2026-06-04T20:33:19.374336,15.80866142,.00009264,97.2845,352.0547,67.3707,292.7659,0,U,69130,999,369,.69132874E-3,.134649E-2,0
STARLINK-37530,2026-110H,2026-06-04T20:32:14.449056,15.80885687,.00011797,97.2845,352.0562,65.8642,294.2750,0,U,69131,999,369,.1001214E-2,.196646E-2,0
STARLINK-37660,2026-110J,2026-06-04T22:00:05.000256,15.73389241,.00014173,97.2843,352.1103,102.8993,225.1134,0,U,69132,999,368,-.15217556E-1,-.1837721E-1,0
STARLINK-37633,2026-110K,2026-06-04T22:00:05.000256,15.74300185,.00014083,97.2845,352.1144,98.4185,239.2500,0,U,69133,999,368,-.14649101E-1,-.1839881E-1,0
STARLINK-37361,2026-110L,2026-06-04T20:28:59.625696,15.80886354,.00015682,97.2845,352.0592,85.7823,274.3624,0,U,69134,999,369,.95437657E-3,.187245E-2,0
STARLINK-37372,2026-110M,2026-06-04T22:00:05.000256,15.77590815,.00014827,97.2845,352.1244,70.3525,289.1721,0,U,69135,999,368,-.10469376E-1,-.1525807E-1,0
STARLINK-37531,2026-110N,2026-06-04T20:26:51.529056,15.80662195,.00015233,97.2845,352.0611,51.9727,308.1679,0,U,69136,999,369,-.84086805E-3,-.15724E-2,0
STARLINK-37662,2026-110P,2026-06-04T22:00:05.000256,15.76042099,.0001438,97.2849,352.1256,81.4984,280.0761,0,U,69137,999,368,-.14471837E-1,-.1945367E-1,0
STARLINK-37658,2026-110Q,2026-06-04T22:00:05.000256,15.69414566,.00016479,97.2850,352.1063,107.5895,209.8750,0,U,69138,999,368,-.24049872E-1,-.2465991E-1,0
STARLINK-37659,2026-110R,2026-06-04T22:00:05.000256,15.67386426,.00015702,97.2848,352.0998,104.5781,196.9230,0,U,69139,999,368,-.25723622E-1,-.2431026E-1,0
STARLINK-37653,2026-110S,2026-06-04T22:00:05.000256,15.66177337,.00016858,97.2847,352.1011,111.1004,192.9576,0,U,69140,999,368,-.27660177E-1,-.2481528E-1,0
STARLINK-37654,2026-110T,2026-06-04T22:00:05.000256,15.76520240,.00008914,97.2846,352.1340,115.7664,266.9502,0,U,69141,999,368,-.17041928E-1,-.2332172E-1,0
